ORBCOMM FM06            
1 25118U 97084G   26205.12494626  .00000904  00000+0  28216-3 0  9998
2 25118  45.0121 234.8814 0001944 260.8858 118.9404 14.47640764499740
ORBCOMM FM04            
1 25159U 98007C   26205.04223380  .00000629  00000+0  26068-3 0  9994
2 25159 107.9632 245.2760 0042062 261.8830  97.7537 14.35795305481889
ORBCOMM FM19            
1 25415U 98046C   26205.01797476  .00000849  00000+0  31469-3 0  9996
2 25415  44.9941  68.4816 0003410 120.9906  21.5572 14.39554755462088
ORBCOMM FM20            
1 25416U 98046D   26205.04010660  .00000601  00000+0  24307-3 0  9992
2 25416  44.9942  76.7073 0000833  73.1100 286.9840 14.38110501462090
ORBCOMM FM27            
1 25481U 98053G   26205.25620497  .00000882  00000+0  32774-3 0  9998
2 25481  45.0042 159.2780 0001905 326.3342  33.7385 14.39198338455571
ORBCOMM FM32            
1 25982U 99065C   26204.43799661  .00000469  00000+0  20343-3 0  9997
2 25982  45.0169   1.6441 0006398 230.0106 130.0180 14.37175804392307
ORBCOMM FM109           
1 40086U 14040A   26205.21809711  .00000156  00000+0  69147-4 0  9993
2 40086  47.0029 276.4045 0001002 353.1321   6.9551 14.58876140639751
ORBCOMM FM110           
1 41182U 15081D   26205.29107149  .00000841  00000+0  21382-3 0  9990
2 41182  47.0005 185.9975 0003833 257.6872 102.3585 14.58930930563046
ORBCOMM FM118           
1 41183U 15081E   26205.25711005  .00000698  00000+0  18377-3 0  9999
2 41183  47.0027 186.4990 0003334 223.5804 136.4818 14.58914618563140
ORBCOMM FM112           
1 41184U 15081F   26205.05545425  .00000631  00000+0  16944-3 0  9994
2 41184  46.9990  95.8996 0003139   8.2762 351.8175 14.58949187564331
ORBCOMM FM113           
1 41185U 15081G   26205.10188823  .00000393  00000+0  11929-3 0  9999
2 41185  47.0008  96.0762 0001691 358.5656   1.5225 14.58889513564322
ORBCOMM FM108           
1 41187U 15081J   26204.85825700  .00000547  00000+0  15167-3 0  9993
2 41187  47.0062   8.8101 0002077 357.0507   3.0366 14.58919595565430
ORBCOMM FM117           
1 41188U 15081K   26204.89255206  .00000542  00000+0  15079-3 0  9993
2 41188  47.0024   7.2730 0002461   6.1000 353.9915 14.58906620565484
ORBCOMM FM116           
1 41189U 15081L   26205.14656928  .00000585  00000+0  15988-3 0  9995
2 41189  47.0023  95.8617 0001757 252.6519 107.4175 14.58916514564337
